{
  "norad_id": 49492,
  "name": "GAOFEN-11 03",
  "history": [
    {
      "epoch": "2026-03-27T14:47:43.224864",
      "apogee_km": 499.1575939911045,
      "perigee_km": 491.264241242513,
      "latitude_deg": -83.57858772690189,
      "longitude_deg": 172.38136095996015,
      "semi_major_axis_km": 6873.347917616808,
      "eccentricity": 0.0005742,
      "inclination_deg": 97.2192,
      "raan_deg": 133.8804,
      "arg_perigee_deg": 0.8173,
      "mean_anomaly_deg": 359.3073,
      "mean_motion_rev_day": 15.23527404
    }
  ]
}